{
"type": "FeatureCollection",
"name": "regions_france",
"crs": { "type": "name", "properties": { "name": "urn:ogc:def:crs:OGC:1.3:CRS84" } },
"features": [
{ "type": "Feature", "properties": { "code": "11", "nom": "Île-de-France" }, "geometry": { "type": "Polygon", "coordinates": [ [ [ 2.59052, 49.07965 ], [ 2.63327, 49.10838 ], [ 2.73501, 49.06045 ], [ 2.80925, 49.09754 ], [ 2.87032, 49.07019 ], [ 3.06501, 49.08515 ], [ 3.06969, 49.11752 ], [ 3.16523, 49.09965 ], [ 3.1909, 49.04762 ], [ 3.1674, 49.0124 ], [ 3.26487, 48.93915 ], [ 3.30475, 48.94876 ], [ 3.3303, 48.90871 ], [ 3.36831, 48.92766 ], [ 3.38143, 48.87157 ], [ 3.48519, 48.85191 ], [ 3.4872, 48.81519 ], [ 3.40417, 48.80927 ], [ 3.44395, 48.79139 ], [ 3.39583, 48.75925 ], [ 3.46973, 48.73787 ], [ 3.45109, 48.63465 ], [ 3.53324, 48.64651 ], [ 3.55847, 48.61844 ], [ 3.46552, 48.57049 ], [ 3.48175, 48.54145 ], [ 3.4054, 48.52801 ], [ 3.4351, 48.49602 ], [ 3.38336, 48.47944 ], [ 3.41479, 48.39027 ], [ 3.04952, 48.36012 ], [ 3.01478, 48.30622 ], [ 3.04757, 48.2497 ], [ 2.93631, 48.16339 ], [ 2.82088, 48.12966 ], [ 2.81033, 48.16613 ], [ 2.73641, 48.16631 ], [ 2.7552, 48.14565 ], [ 2.66475, 48.12054 ], [ 2.44276, 48.1254 ], [ 2.51653, 48.16624 ], [ 2.51833, 48.22759 ], [ 2.42352, 48.26037 ], [ 2.40266, 48.32072 ], [ 2.31718, 48.33157 ], [ 2.24516, 48.2984 ], [ 2.24617, 48.33126 ], [ 2.20225, 48.3446 ], [ 2.16375, 48.29843 ], [ 1.97272, 48.28822 ], [ 1.98903, 48.36358 ], [ 1.97824, 48.402 ], [ 1.92837, 48.40605 ], [ 1.92945, 48.45696 ], [ 1.87169, 48.43978 ], [ 1.80145, 48.46604 ], [ 1.78725, 48.55374 ], [ 1.60312, 48.66242 ], [ 1.61177, 48.68947 ], [ 1.57685, 48.70258 ], [ 1.62654, 48.74805 ], [ 1.58146, 48.76552 ], [ 1.59785, 48.83906 ], [ 1.50734, 48.9276 ], [ 1.4919, 48.96441 ], [ 1.51839, 48.97835 ], [ 1.46093, 48.98644 ], [ 1.48003, 49.00753 ], [ 1.44645, 49.04635 ], [ 1.50792, 49.08539 ], [ 1.62332, 49.08608 ], [ 1.7094, 49.24131 ], [ 1.75551, 49.17459 ], [ 1.88257, 49.16249 ], [ 2.08089, 49.21045 ], [ 2.16879, 49.16395 ], [ 2.21865, 49.18068 ], [ 2.22958, 49.15129 ], [ 2.31093, 49.18641 ], [ 2.48993, 49.10636 ], [ 2.55702, 49.12382 ], [ 2.59052, 49.07965 ] ] ] } },
{ "type": "Feature", "properties": { "code": "24", "nom": "Centre-Val de Loire" }, "geometry": { "type": "Polygon", "coordinates": [ [ [ 2.87463, 47.52042 ], [ 2.93195, 47.43946 ], [ 2.87655, 47.32193 ], [ 2.98309, 47.26081 ], [ 3.01934, 47.06817 ], [ 3.07516, 47.02932 ], [ 3.05887, 46.82628 ], [ 3.02765, 46.79336 ], [ 2.91327, 46.79103 ], [ 2.84677, 46.72706 ], [ 2.75852, 46.71775 ], [ 2.7145, 46.74449 ], [ 2.62337, 46.68964 ], [ 2.62864, 46.65954 ], [ 2.56713, 46.65374 ], [ 2.5931, 46.64658 ], [ 2.56838, 46.60938 ], [ 2.61496, 46.55328 ], [ 2.53665, 46.5197 ], [ 2.35985, 46.51588 ], [ 2.28105, 46.42041 ], [ 1.83978, 46.42572 ], [ 1.78652, 46.45525 ], [ 1.74759, 46.45002 ], [ 1.72704, 46.39021 ], [ 1.6836, 46.41818 ], [ 1.62675, 46.38851 ], [ 1.60925, 46.42312 ], [ 1.5462, 46.39346 ], [ 1.52191, 46.4264 ], [ 1.41675, 46.34719 ], [ 1.35602, 46.40012 ], [ 1.30306, 46.37099 ], [ 1.18219, 46.37608 ], [ 1.21269, 46.43222 ], [ 1.15182, 46.4487 ], [ 1.14594, 46.5064 ], [ 0.91055, 46.60179 ], [ 0.91323, 46.72571 ], [ 0.70432, 46.90329 ], [ 0.69257, 46.97431 ], [ 0.56774, 47.00629 ], [ 0.59835, 46.95676 ], [ 0.32383, 46.93145 ], [ 0.29187, 46.98924 ], [ 0.30538, 47.0527 ], [ 0.17577, 47.06064 ], [ 0.20095, 47.09139 ], [ 0.18316, 47.11438 ], [ 0.08135, 47.11854 ], [ 0.05358, 47.16056 ], [ 0.0786, 47.28394 ], [ 0.18339, 47.38123 ], [ 0.15386, 47.39873 ], [ 0.22011, 47.50195 ], [ 0.19334, 47.53911 ], [ 0.2321, 47.61082 ], [ 0.37848, 47.56853 ], [ 0.40238, 47.57842 ], [ 0.36426, 47.62051 ], [ 0.38279, 47.64309 ], [ 0.44993, 47.61933 ], [ 0.59688, 47.67285 ], [ 0.61885, 47.69348 ], [ 0.58114, 47.71356 ], [ 0.70254, 47.76682 ], [ 0.77471, 47.83937 ], [ 0.76018, 47.89886 ], [ 0.81211, 47.88853 ], [ 0.81406, 47.93232 ], [ 0.8487, 47.94258 ], [ 0.81866, 47.98925 ], [ 0.84188, 48.03018 ], [ 0.79755, 48.03724 ], [ 0.79398, 48.06971 ], [ 0.84302, 48.07264 ], [ 0.81435, 48.0988 ], [ 0.85037, 48.13308 ], [ 0.91665, 48.13894 ], [ 0.79562, 48.18804 ], [ 0.83048, 48.21071 ], [ 0.78588, 48.27114 ], [ 0.80707, 48.28973 ], [ 0.75567, 48.29982 ], [ 0.78543, 48.34043 ], [ 0.91633, 48.37451 ], [ 0.97649, 48.44111 ], [ 0.93571, 48.47555 ], [ 0.96774, 48.52388 ], [ 0.81964, 48.60987 ], [ 0.80935, 48.66482 ], [ 0.89057, 48.7204 ], [ 1.11454, 48.74712 ], [ 1.1214, 48.78919 ], [ 1.32981, 48.76096 ], [ 1.37479, 48.78118 ], [ 1.36138, 48.83364 ], [ 1.46297, 48.87448 ], [ 1.44796, 48.92464 ], [ 1.47151, 48.93965 ], [ 1.5384, 48.92251 ], [ 1.56374, 48.89063 ], [ 1.54623, 48.87243 ], [ 1.59785, 48.83906 ], [ 1.58146, 48.76552 ], [ 1.62654, 48.74805 ], [ 1.57685, 48.70258 ], [ 1.61177, 48.68947 ], [ 1.60312, 48.66242 ], [ 1.78725, 48.55374 ], [ 1.80145, 48.46604 ], [ 1.87169, 48.43978 ], [ 1.92945, 48.45696 ], [ 1.92837, 48.40605 ], [ 1.97824, 48.402 ], [ 1.97272, 48.28822 ], [ 2.16375, 48.29843 ], [ 2.20225, 48.3446 ], [ 2.24617, 48.33126 ], [ 2.24516, 48.2984 ], [ 2.32755, 48.33297 ], [ 2.40266, 48.32072 ], [ 2.42352, 48.26037 ], [ 2.51833, 48.22759 ], [ 2.51653, 48.16624 ], [ 2.44431, 48.12423 ], [ 2.70532, 48.12303 ], [ 2.7552, 48.14565 ], [ 2.73641, 48.16631 ], [ 2.79526, 48.16908 ], [ 2.80122, 48.13145 ], [ 2.95327, 48.16501 ], [ 3.0294, 48.1333 ], [ 3.05047, 48.07233 ], [ 3.12426, 48.03113 ], [ 3.09946, 48.02075 ], [ 3.12845, 47.97097 ], [ 3.00956, 47.90539 ], [ 3.02528, 47.78767 ], [ 2.85199, 47.75786 ], [ 2.84897, 47.71684 ], [ 2.92675, 47.68176 ], [ 2.95423, 47.64569 ], [ 2.93627, 47.59932 ], [ 2.97654, 47.56943 ], [ 2.85655, 47.55235 ], [ 2.87463, 47.52042 ] ] ] } },
{ "type": "Feature", "properties": { "code": "27", "nom": "Bourgogne-Franche-Comté" }, "geometry": { "type": "Polygon", "coordinates": [ [ [ 3.62942, 46.74946 ], [ 3.58865, 46.76134 ], [ 3.598, 46.72398 ], [ 3.54724, 46.72143 ], [ 3.56115, 46.68862 ], [ 3.45729, 46.65176 ], [ 3.43369, 46.71223 ], [ 3.34671, 46.68442 ], [ 3.26979, 46.71674 ], [ 3.19882, 46.67951 ], [ 3.03615, 46.77635 ], [ 3.06953, 46.85307 ], [ 3.04999, 46.90771 ], [ 3.07516, 47.02932 ], [ 3.01934, 47.06817 ], [ 2.98309, 47.26081 ], [ 2.87655, 47.32193 ], [ 2.93195, 47.43946 ], [ 2.84519, 47.54493 ], [ 2.97654, 47.56943 ], [ 2.93627, 47.59932 ], [ 2.95423, 47.64569 ], [ 2.92675, 47.68176 ], [ 2.84897, 47.71684 ], [ 2.85199, 47.75786 ], [ 3.02528, 47.78767 ], [ 3.00956, 47.90539 ], [ 3.12845, 47.97097 ], [ 3.09946, 48.02075 ], [ 3.12426, 48.03113 ], [ 3.05047, 48.07233 ], [ 3.0294, 48.1333 ], [ 2.93528, 48.16614 ], [ 3.04757, 48.2497 ], [ 3.01478, 48.30622 ], [ 3.04952, 48.36012 ], [ 3.35768, 48.37102 ], [ 3.38342, 48.39939 ], [ 3.42739, 48.35809 ], [ 3.49763, 48.36958 ], [ 3.62376, 48.25929 ], [ 3.57519, 48.18874 ], [ 3.63494, 48.18792 ], [ 3.66787, 48.13921 ], [ 3.74747, 48.16625 ], [ 3.73972, 48.13275 ], [ 3.79169, 48.11764 ], [ 3.82198, 48.04392 ], [ 3.87061, 48.01681 ], [ 3.85003, 47.98366 ], [ 3.91092, 47.98182 ], [ 3.90216, 47.92554 ], [ 4.10961, 47.92604 ], [ 4.16633, 47.9598 ], [ 4.20188, 47.94116 ], [ 4.20242, 47.973 ], [ 4.29342, 47.92568 ], [ 4.3128, 47.9625 ], [ 4.55424, 47.96748 ], [ 4.53577, 48.00657 ], [ 4.58507, 48.0301 ], [ 4.78908, 48.00783 ], [ 4.81024, 47.98858 ], [ 4.78651, 47.9642 ], [ 4.8661, 47.94051 ], [ 4.83404, 47.90679 ], [ 4.90291, 47.92104 ], [ 4.99413, 47.81975 ], [ 4.91796, 47.77709 ], [ 4.95899, 47.76187 ], [ 4.96909, 47.68583 ], [ 5.02915, 47.70992 ], [ 5.0535, 47.66827 ], [ 5.12537, 47.64677 ], [ 5.17834, 47.68095 ], [ 5.1736, 47.65257 ], [ 5.2586, 47.62221 ], [ 5.25312, 47.57685 ], [ 5.32234, 47.61236 ], [ 5.35557, 47.59147 ], [ 5.42018, 47.67767 ], [ 5.52978, 47.67283 ], [ 5.56739, 47.70712 ], [ 5.59668, 47.67169 ], [ 5.69106, 47.68463 ], [ 5.69224, 47.82133 ], [ 5.74076, 47.8192 ], [ 5.76119, 47.85933 ], [ 5.82798, 47.85187 ], [ 5.93249, 47.97729 ], [ 5.96013, 47.96803 ], [ 5.92839, 47.93781 ], [ 5.94939, 47.93545 ], [ 6.04118, 48.00442 ], [ 6.1314, 48.02408 ], [ 6.14981, 47.96592 ], [ 6.20522, 47.93205 ], [ 6.38893, 47.96079 ], [ 6.47826, 47.88544 ], [ 6.60737, 47.94379 ], [ 6.84308, 47.82505 ], [ 6.86699, 47.78331 ], [ 7.01596, 47.74323 ], [ 7.04803, 47.6841 ], [ 7.00594, 47.60236 ], [ 7.08107, 47.59612 ], [ 7.14346, 47.52461 ], [ 7.11106, 47.4949 ], [ 6.98251, 47.4935 ], [ 7.0019, 47.45394 ], [ 6.94054, 47.43337 ], [ 6.87927, 47.35245 ], [ 7.01556, 47.37279 ], [ 7.05675, 47.33457 ], [ 6.94088, 47.28667 ], [ 6.95541, 47.24329 ], [ 6.70279, 47.08158 ], [ 6.71861, 47.05084 ], [ 6.43267, 46.9286 ], [ 6.46458, 46.89021 ], [ 6.431, 46.81241 ], [ 6.45222, 46.77413 ], [ 6.11162, 46.5776 ], [ 6.15645, 46.54547 ], [ 6.07268, 46.4657 ], [ 6.08584, 46.441 ], [ 5.86919, 46.26497 ], [ 5.72518, 46.26073 ], [ 5.71472, 46.30877 ], [ 5.64314, 46.34478 ], [ 5.59354, 46.29436 ], [ 5.47385, 46.26428 ], [ 5.46692, 46.32327 ], [ 5.43783, 46.3157 ], [ 5.42366, 46.34768 ], [ 5.40465, 46.31034 ], [ 5.37788, 46.38223 ], [ 5.2988, 46.41268 ], [ 5.3149, 46.44513 ], [ 5.21506, 46.46836 ], [ 5.20186, 46.50826 ], [ 5.05643, 46.48393 ], [ 4.94125, 46.51965 ], [ 4.78021, 46.17668 ], [ 4.72726, 46.17912 ], [ 4.73666, 46.23247 ], [ 4.68174, 46.25549 ], [ 4.71039, 46.27857 ], [ 4.6792, 46.30626 ], [ 4.61856, 46.26479 ], [ 4.56025, 46.29524 ], [ 4.504, 46.26713 ], [ 4.40581, 46.29606 ], [ 4.37394, 46.18684 ], [ 4.28123, 46.15594 ], [ 4.20791, 46.19484 ], [ 3.99012, 46.16911 ], [ 3.97255, 46.20271 ], [ 3.89013, 46.21449 ], [ 3.89124, 46.28525 ], [ 4.00457, 46.32748 ], [ 3.97722, 46.39922 ], [ 4.00081, 46.46245 ], [ 3.74185, 46.53951 ], [ 3.73732, 46.60157 ], [ 3.62942, 46.74946 ] ] ] } },
{ "type": "Feature", "properties": { "code": "28", "nom": "Normandie" }, "geometry": { "type": "MultiPolygon", "coordinates": [ [ [ [ -1.11962, 49.35557 ], [ -1.07267, 49.38997 ], [ -0.94723, 49.39581 ], [ -0.75529, 49.34891 ], [ -0.39661, 49.333 ], [ -0.22569, 49.28182 ], [ -0.08717, 49.29791 ], [ 0.12975, 49.40299 ], [ 0.34059, 49.43432 ], [ 0.12125, 49.46319 ], [ 0.06655, 49.51007 ], [ 0.20599, 49.71419 ], [ 0.58353, 49.85262 ], [ 1.10726, 49.93712 ], [ 1.36958, 50.06484 ], [ 1.44906, 50.06889 ], [ 1.45479, 50.03778 ], [ 1.67817, 49.91827 ], [ 1.78464, 49.76357 ], [ 1.75029, 49.76373 ], [ 1.68958, 49.69479 ], [ 1.75238, 49.68258 ], [ 1.69868, 49.6439 ], [ 1.72161, 49.62199 ], [ 1.69373, 49.60107 ], [ 1.72162, 49.58881 ], [ 1.69067, 49.58 ], [ 1.7483, 49.53845 ], [ 1.71639, 49.50393 ], [ 1.79022, 49.50347 ], [ 1.71391, 49.40657 ], [ 1.76096, 49.36621 ], [ 1.79055, 49.24657 ], [ 1.70917, 49.26446 ], [ 1.61328, 49.08008 ], [ 1.50792, 49.08539 ], [ 1.5033, 49.0591 ], [ 1.44728, 49.05351 ], [ 1.47089, 48.97482 ], [ 1.51839, 48.97835 ], [ 1.44796, 48.92464 ], [ 1.46062, 48.8723 ], [ 1.36138, 48.83364 ], [ 1.37479, 48.78118 ], [ 1.22305, 48.75798 ], [ 1.1214, 48.78919 ], [ 1.11454, 48.74712 ], [ 0.89057, 48.7204 ], [ 0.81225, 48.66801 ], [ 0.81964, 48.60987 ], [ 0.96774, 48.52388 ], [ 0.93571, 48.47555 ], [ 0.97642, 48.43877 ], [ 0.90903, 48.37026 ], [ 0.76887, 48.32194 ], [ 0.75567, 48.29982 ], [ 0.80707, 48.28973 ], [ 0.78588, 48.27114 ], [ 0.83048, 48.21071 ], [ 0.7607, 48.18021 ], [ 0.68295, 48.25488 ], [ 0.53605, 48.24967 ], [ 0.48995, 48.30936 ], [ 0.39554, 48.32047 ], [ 0.38244, 48.4249 ], [ 0.30072, 48.48049 ], [ 0.14557, 48.45731 ], [ 0.15779, 48.44081 ], [ 0.06078, 48.37962 ], [ -0.00243, 48.39736 ], [ -0.05069, 48.37521 ], [ -0.05135, 48.45293 ], [ -0.14688, 48.45644 ], [ -0.1725, 48.51054 ], [ -0.1446, 48.52775 ], [ -0.20808, 48.56414 ], [ -0.24264, 48.56799 ], [ -0.27155, 48.50745 ], [ -0.32024, 48.52292 ], [ -0.35315, 48.48377 ], [ -0.5097, 48.50901 ], [ -0.65107, 48.44395 ], [ -0.66624, 48.48589 ], [ -0.7311, 48.47282 ], [ -0.7151, 48.44895 ], [ -0.76016, 48.43616 ], [ -0.84636, 48.49952 ], [ -0.9554, 48.51729 ], [ -1.004, 48.48917 ], [ -1.20689, 48.54219 ], [ -1.26233, 48.54027 ], [ -1.37987, 48.45608 ], [ -1.48995, 48.48937 ], [ -1.57109, 48.62645 ], [ -1.35175, 48.63122 ], [ -1.39961, 48.65553 ], [ -1.37611, 48.69039 ], [ -1.44577, 48.65477 ], [ -1.50494, 48.6874 ], [ -1.57101, 48.74422 ], [ -1.57444, 48.82168 ], [ -1.61443, 48.83422 ], [ -1.55671, 48.93229 ], [ -1.54993, 48.89636 ], [ -1.55681, 49.02665 ], [ -1.50553, 49.02037 ], [ -1.56013, 49.03671 ], [ -1.57623, 49.00041 ], [ -1.59888, 49.03737 ], [ -1.60883, 49.1056 ], [ -1.58107, 49.13167 ], [ -1.61363, 49.21876 ], [ -1.56856, 49.22164 ], [ -1.61469, 49.23795 ], [ -1.62552, 49.21006 ], [ -1.71117, 49.3251 ], [ -1.6746, 49.33201 ], [ -1.80916, 49.3721 ], [ -1.84817, 49.50375 ], [ -1.88661, 49.52635 ], [ -1.839, 49.5764 ], [ -1.85004, 49.63264 ], [ -1.94689, 49.67454 ], [ -1.94808, 49.71723 ], [ -1.85179, 49.7184 ], [ -1.61516, 49.64346 ], [ -1.48693, 49.66852 ], [ -1.47326, 49.69701 ], [ -1.2662, 49.69542 ], [ -1.22866, 49.60607 ], [ -1.29623, 49.58317 ], [ -1.30636, 49.53893 ], [ -1.17115, 49.41252 ], [ -1.17754, 49.36489 ], [ -1.11962, 49.35557 ] ] ], [ [ [ -1.24053, 49.58545 ], [ -1.24801, 49.5876 ], [ -1.2474, 49.59141 ], [ -1.23912, 49.58887 ], [ -1.24053, 49.58545 ] ] ], [ [ [ -1.5109, 48.63502 ], [ -1.5132, 48.63585 ], [ -1.5111, 48.63695 ], [ -1.50962, 48.63597 ], [ -1.5109, 48.63502 ] ] ], [ [ [ -1.82137, 48.86824 ], [ -1.83262, 48.86901 ], [ -1.83719, 48.8763 ], [ -1.83569, 48.87466 ], [ -1.82085, 48.86854 ], [ -1.82137, 48.86824 ] ] ] ] } },
{ "type": "Feature", "properties": { "code": "32", "nom": "Hauts-de-France" }, "geometry": { "type": "Polygon", "coordinates": [ [ [ 4.1409, 49.97876 ], [ 4.23316, 49.95775 ], [ 4.21696, 49.91439 ], [ 4.2557, 49.90321 ], [ 4.25276, 49.86965 ], [ 4.20592, 49.77819 ], [ 4.2496, 49.75711 ], [ 4.12702, 49.67792 ], [ 4.11575, 49.63292 ], [ 4.02529, 49.62253 ], [ 4.07657, 49.57113 ], [ 4.04876, 49.54527 ], [ 4.07584, 49.51835 ], [ 4.04071, 49.50853 ], [ 4.06791, 49.44488 ], [ 4.03766, 49.43826 ], [ 4.0355, 49.3599 ], [ 3.92523, 49.40758 ], [ 3.82238, 49.40238 ], [ 3.85985, 49.38615 ], [ 3.85284, 49.34497 ], [ 3.77753, 49.35582 ], [ 3.64394, 49.31272 ], [ 3.67815, 49.23533 ], [ 3.65283, 49.21543 ], [ 3.74877, 49.15708 ], [ 3.62225, 49.1511 ], [ 3.60002, 49.12069 ], [ 3.63847, 49.07744 ], [ 3.5852, 49.03887 ], [ 3.65008, 49.04282 ], [ 3.67772, 49.01397 ], [ 3.46071, 48.83944 ], [ 3.38143, 48.87157 ], [ 3.36831, 48.92766 ], [ 3.3303, 48.90871 ], [ 3.30475, 48.94876 ], [ 3.26487, 48.93915 ], [ 3.1674, 49.0124 ], [ 3.19075, 49.05104 ], [ 3.13817, 49.10713 ], [ 3.06969, 49.11752 ], [ 3.06501, 49.08515 ], [ 2.98689, 49.07107 ], [ 2.96873, 49.09146 ], [ 2.85465, 49.07018 ], [ 2.80925, 49.09754 ], [ 2.73501, 49.06045 ], [ 2.63327, 49.10838 ], [ 2.58302, 49.08065 ], [ 2.55329, 49.1246 ], [ 2.48993, 49.10636 ], [ 2.31093, 49.18641 ], [ 2.22958, 49.15129 ], [ 2.21865, 49.18068 ], [ 2.16879, 49.16395 ], [ 2.08089, 49.21045 ], [ 1.88257, 49.16249 ], [ 1.74083, 49.18073 ], [ 1.70694, 49.2614 ], [ 1.79055, 49.24657 ], [ 1.80266, 49.27343 ], [ 1.72047, 49.39398 ], [ 1.74038, 49.40568 ], [ 1.71394, 49.40922 ], [ 1.79022, 49.50347 ], [ 1.71639, 49.50393 ], [ 1.7483, 49.53845 ], [ 1.69067, 49.58 ], [ 1.72162, 49.58881 ], [ 1.69373, 49.60107 ], [ 1.72161, 49.62199 ], [ 1.69868, 49.6439 ], [ 1.75112, 49.69439 ], [ 1.68958, 49.69479 ], [ 1.75029, 49.76373 ], [ 1.78464, 49.76357 ], [ 1.67817, 49.91827 ], [ 1.45479, 50.03778 ], [ 1.44906, 50.06889 ], [ 1.38065, 50.06437 ], [ 1.52713, 50.20788 ], [ 1.6838, 50.18303 ], [ 1.53843, 50.27858 ], [ 1.55583, 50.36132 ], [ 1.64154, 50.35215 ], [ 1.55566, 50.39768 ], [ 1.58298, 50.5346 ], [ 1.65917, 50.50778 ], [ 1.57661, 50.57223 ], [ 1.5625, 50.7244 ], [ 1.60254, 50.7216 ], [ 1.6056, 50.7676 ], [ 1.58185, 50.87104 ], [ 1.78072, 50.95487 ], [ 2.07774, 51.00792 ], [ 2.12206, 50.99048 ], [ 2.15036, 51.03433 ], [ 2.17966, 51.00738 ], [ 2.19554, 51.03562 ], [ 2.17142, 51.04434 ], [ 2.39523, 51.05033 ], [ 2.54554, 51.089 ], [ 2.57399, 51.00352 ], [ 2.63269, 50.94601 ], [ 2.59001, 50.9191 ], [ 2.59906, 50.84875 ], [ 2.63498, 50.81276 ], [ 2.7239, 50.81012 ], [ 2.78958, 50.72626 ], [ 2.90607, 50.69232 ], [ 2.95048, 50.75129 ], [ 3.15079, 50.79012 ], [ 3.20511, 50.71245 ], [ 3.26117, 50.70128 ], [ 3.24011, 50.65856 ], [ 3.28874, 50.52553 ], [ 3.37622, 50.49108 ], [ 3.47439, 50.53361 ], [ 3.51991, 50.52332 ], [ 3.50098, 50.487 ], [ 3.60835, 50.49673 ], [ 3.66233, 50.45617 ], [ 3.65715, 50.36926 ], [ 3.71043, 50.30317 ], [ 3.7474, 50.35093 ], [ 3.90005, 50.32728 ], [ 4.02371, 50.35889 ], [ 4.11712, 50.30405 ], [ 4.13538, 50.25719 ], [ 4.16761, 50.2597 ], [ 4.16268, 50.28892 ], [ 4.20796, 50.273 ], [ 4.2207, 50.2522 ], [ 4.15164, 50.21346 ], [ 4.12693, 50.13501 ], [ 4.19704, 50.13531 ], [ 4.23112, 50.07127 ], [ 4.15222, 50.03902 ], [ 4.1409, 49.97876 ] ] ] } },
{ "type": "Feature", "properties": { "code": "44", "nom": "Grand Est" }, "geometry": { "type": "Polygon", "coordinates": [ [ [ 4.23316, 49.95775 ], [ 4.44694, 49.9375 ], [ 4.69358, 49.99552 ], [ 4.69302, 50.08482 ], [ 4.82507, 50.16912 ], [ 4.89708, 50.13779 ], [ 4.81931, 50.06588 ], [ 4.84132, 50.04 ], [ 4.79011, 49.97002 ], [ 4.88998, 49.90927 ], [ 4.8512, 49.86499 ], [ 4.87693, 49.8194 ], [ 4.85148, 49.79355 ], [ 4.99536, 49.80061 ], [ 5.0935, 49.76373 ], [ 5.16621, 49.69292 ], [ 5.27067, 49.69532 ], [ 5.332, 49.65478 ], [ 5.31208, 49.61166 ], [ 5.35151, 49.63079 ], [ 5.42855, 49.59587 ], [ 5.46519, 49.4989 ], [ 5.55605, 49.52925 ], [ 5.61098, 49.50593 ], [ 5.64298, 49.54997 ], [ 5.74738, 49.53943 ], [ 5.77145, 49.56325 ], [ 5.86385, 49.50083 ], [ 5.94311, 49.50023 ], [ 5.979, 49.45292 ], [ 6.04215, 49.4478 ], [ 6.24071, 49.51451 ], [ 6.33378, 49.46689 ], [ 6.42809, 49.47692 ], [ 6.5419, 49.43244 ], [ 6.54053, 49.40115 ], [ 6.60183, 49.36647 ], [ 6.56584, 49.34735 ], [ 6.67037, 49.28029 ], [ 6.73851, 49.16366 ], [ 6.83454, 49.15147 ], [ 6.86177, 49.17944 ], [ 6.83778, 49.21332 ], [ 6.92545, 49.22359 ], [ 7.03503, 49.19064 ], [ 7.0543, 49.11263 ], [ 7.10093, 49.15562 ], [ 7.1588, 49.12078 ], [ 7.29374, 49.1151 ], [ 7.36609, 49.17247 ], [ 7.44478, 49.18423 ], [ 7.43646, 49.16423 ], [ 7.494, 49.16964 ], [ 7.52898, 49.09721 ], [ 7.63529, 49.05416 ], [ 7.79459, 49.06579 ], [ 7.8663, 49.0334 ], [ 7.93376, 49.05803 ], [ 8.23334, 48.96668 ], [ 8.14794, 48.90381 ], [ 8.09155, 48.8057 ], [ 7.97176, 48.75763 ], [ 7.80176, 48.58827 ], [ 7.80655, 48.51725 ], [ 7.73185, 48.3929 ], [ 7.74466, 48.32784 ], [ 7.69338, 48.30153 ], [ 7.66602, 48.22088 ], [ 7.57731, 48.12037 ], [ 7.56869, 48.03411 ], [ 7.62209, 47.97227 ], [ 7.5567, 47.87994 ], [ 7.52963, 47.77891 ], [ 7.54767, 47.72992 ], [ 7.51185, 47.69704 ], [ 7.59217, 47.59536 ], [ 7.5, 47.53979 ], [ 7.53143, 47.52829 ], [ 7.4978, 47.52123 ], [ 7.50247, 47.49077 ], [ 7.43185, 47.49607 ], [ 7.45566, 47.4705 ], [ 7.40341, 47.43552 ], [ 7.24618, 47.42022 ], [ 7.17077, 47.44305 ], [ 7.20105, 47.49391 ], [ 7.13035, 47.50303 ], [ 7.14346, 47.52461 ], [ 7.08107, 47.59612 ], [ 7.00594, 47.60236 ], [ 7.04803, 47.6841 ], [ 7.01596, 47.74323 ], [ 6.86699, 47.78331 ], [ 6.84308, 47.82505 ], [ 6.60737, 47.94379 ], [ 6.47826, 47.88544 ], [ 6.38893, 47.96079 ], [ 6.20522, 47.93205 ], [ 6.14981, 47.96592 ], [ 6.1314, 48.02408 ], [ 6.04118, 48.00442 ], [ 5.94939, 47.93545 ], [ 5.92839, 47.93781 ], [ 5.96013, 47.96803 ], [ 5.93249, 47.97729 ], [ 5.82798, 47.85187 ], [ 5.76119, 47.85933 ], [ 5.74076, 47.8192 ], [ 5.69224, 47.82133 ], [ 5.69106, 47.68463 ], [ 5.59668, 47.67169 ], [ 5.56739, 47.70712 ], [ 5.52978, 47.67283 ], [ 5.42018, 47.67767 ], [ 5.35557, 47.59147 ], [ 5.32234, 47.61236 ], [ 5.25312, 47.57685 ], [ 5.2586, 47.62221 ], [ 5.1736, 47.65257 ], [ 5.17834, 47.68095 ], [ 5.12537, 47.64677 ], [ 5.0535, 47.66827 ], [ 5.02915, 47.70992 ], [ 4.96909, 47.68583 ], [ 4.95899, 47.76187 ], [ 4.91796, 47.77709 ], [ 4.99413, 47.81975 ], [ 4.90291, 47.92104 ], [ 4.83404, 47.90679 ], [ 4.8661, 47.94051 ], [ 4.78651, 47.9642 ], [ 4.81024, 47.98858 ], [ 4.78908, 48.00783 ], [ 4.58507, 48.0301 ], [ 4.53577, 48.00657 ], [ 4.55424, 47.96748 ], [ 4.3128, 47.9625 ], [ 4.29342, 47.92568 ], [ 4.20242, 47.973 ], [ 4.20188, 47.94116 ], [ 4.16633, 47.9598 ], [ 4.10961, 47.92604 ], [ 3.89536, 47.9286 ], [ 3.91092, 47.98182 ], [ 3.85003, 47.98366 ], [ 3.87061, 48.01681 ], [ 3.82198, 48.04392 ], [ 3.79169, 48.11764 ], [ 3.73972, 48.13275 ], [ 3.74747, 48.16625 ], [ 3.66787, 48.13921 ], [ 3.63494, 48.18792 ], [ 3.57985, 48.18434 ], [ 3.62162, 48.22574 ], [ 3.59985, 48.23591 ], [ 3.6168, 48.27134 ], [ 3.49763, 48.36958 ], [ 3.42739, 48.35809 ], [ 3.4221, 48.41619 ], [ 3.39167, 48.42325 ], [ 3.38336, 48.47944 ], [ 3.43464, 48.49025 ], [ 3.4054, 48.52801 ], [ 3.48175, 48.54145 ], [ 3.46552, 48.57049 ], [ 3.55851, 48.61696 ], [ 3.53324, 48.64651 ], [ 3.45109, 48.63465 ], [ 3.46973, 48.73787 ], [ 3.39911, 48.755 ], [ 3.44395, 48.79139 ], [ 3.40417, 48.80927 ], [ 3.4872, 48.81519 ], [ 3.48183, 48.86594 ], [ 3.67772, 49.01397 ], [ 3.65008, 49.04282 ], [ 3.5852, 49.03887 ], [ 3.63847, 49.07744 ], [ 3.60002, 49.12069 ], [ 3.62225, 49.1511 ], [ 3.74877, 49.15708 ], [ 3.65283, 49.21543 ], [ 3.67815, 49.23533 ], [ 3.64394, 49.31272 ], [ 3.77753, 49.35582 ], [ 3.85284, 49.34497 ], [ 3.85985, 49.38615 ], [ 3.82238, 49.40238 ], [ 3.92523, 49.40758 ], [ 4.0355, 49.3599 ], [ 4.03766, 49.43826 ], [ 4.06791, 49.44488 ], [ 4.04071, 49.50853 ], [ 4.07584, 49.51835 ], [ 4.04876, 49.54527 ], [ 4.07657, 49.57113 ], [ 4.02461, 49.62126 ], [ 4.11575, 49.63292 ], [ 4.12702, 49.67792 ], [ 4.2496, 49.75711 ], [ 4.20592, 49.77819 ], [ 4.25276, 49.86965 ], [ 4.2557, 49.90321 ], [ 4.21696, 49.91439 ], [ 4.23316, 49.95775 ] ] ] } },
{ "type": "Feature", "properties": { "code": "52", "nom": "Pays de la Loire" }, "geometry": { "type": "MultiPolygon", "coordinates": [ [ [ [ -2.45849, 47.44812 ], [ -2.42303, 47.47711 ], [ -2.31697, 47.46129 ], [ -2.29642, 47.51599 ], [ -2.16462, 47.48915 ], [ -2.15602, 47.52203 ], [ -2.09855, 47.53396 ], [ -2.0812, 47.6502 ], [ -1.97438, 47.69394 ], [ -1.96124, 47.67092 ], [ -1.85831, 47.70827 ], [ -1.65751, 47.70944 ], [ -1.62306, 47.76357 ], [ -1.47054, 47.80336 ], [ -1.47823, 47.83588 ], [ -1.24588, 47.77672 ], [ -1.1553, 47.96554 ], [ -1.01577, 48.00356 ], [ -1.10196, 48.2625 ], [ -1.04505, 48.32818 ], [ -1.08359, 48.43373 ], [ -1.06044, 48.51494 ], [ -1.004, 48.48917 ], [ -0.9554, 48.51729 ], [ -0.84636, 48.49952 ], [ -0.76016, 48.43616 ], [ -0.7151, 48.44895 ], [ -0.7311, 48.47282 ], [ -0.66624, 48.48589 ], [ -0.65107, 48.44395 ], [ -0.5097, 48.50901 ], [ -0.35315, 48.48377 ], [ -0.32024, 48.52292 ], [ -0.27155, 48.50745 ], [ -0.24264, 48.56799 ], [ -0.20808, 48.56414 ], [ -0.1446, 48.52775 ], [ -0.1725, 48.51054 ], [ -0.14688, 48.45644 ], [ -0.05135, 48.45293 ], [ -0.05069, 48.37521 ], [ -0.00243, 48.39736 ], [ 0.06078, 48.37962 ], [ 0.15779, 48.44081 ], [ 0.14557, 48.45731 ], [ 0.30072, 48.48049 ], [ 0.38244, 48.4249 ], [ 0.40417, 48.31531 ], [ 0.48995, 48.30936 ], [ 0.53605, 48.24967 ], [ 0.68295, 48.25488 ], [ 0.74536, 48.1849 ], [ 0.79766, 48.19445 ], [ 0.91665, 48.13894 ], [ 0.85037, 48.13308 ], [ 0.81435, 48.0988 ], [ 0.84302, 48.07264 ], [ 0.79398, 48.06971 ], [ 0.79755, 48.03724 ], [ 0.84188, 48.03018 ], [ 0.81866, 47.98925 ], [ 0.8487, 47.94258 ], [ 0.81406, 47.93232 ], [ 0.81211, 47.88853 ], [ 0.76018, 47.89886 ], [ 0.77471, 47.83937 ], [ 0.70254, 47.76682 ], [ 0.58114, 47.71356 ], [ 0.61481, 47.68275 ], [ 0.44993, 47.61933 ], [ 0.38279, 47.64309 ], [ 0.36426, 47.62051 ], [ 0.40238, 47.57842 ], [ 0.37848, 47.56853 ], [ 0.2321, 47.61082 ], [ 0.19334, 47.53911 ], [ 0.22011, 47.50195 ], [ 0.15386, 47.39873 ], [ 0.18296, 47.38033 ], [ 0.0786, 47.28394 ], [ 0.06348, 47.17619 ], [ -0.01218, 47.15595 ], [ -0.03562, 47.08626 ], [ -0.0859, 47.10101 ], [ -0.1289, 47.05424 ], [ -0.17902, 47.07017 ], [ -0.14055, 47.09705 ], [ -0.17955, 47.108 ], [ -0.39592, 47.09159 ], [ -0.48038, 47.05363 ], [ -0.45956, 47.08241 ], [ -0.49445, 47.08309 ], [ -0.5573, 47.06437 ], [ -0.54253, 47.03234 ], [ -0.59549, 46.99795 ], [ -0.78758, 47.00514 ], [ -0.90239, 46.97075 ], [ -0.8074, 46.91983 ], [ -0.83085, 46.88515 ], [ -0.78165, 46.84283 ], [ -0.69875, 46.81088 ], [ -0.72705, 46.76642 ], [ -0.65619, 46.70077 ], [ -0.68073, 46.68694 ], [ -0.63699, 46.66333 ], [ -0.65888, 46.63592 ], [ -0.61405, 46.62161 ], [ -0.60213, 46.53328 ], [ -0.64632, 46.51138 ], [ -0.60766, 46.45486 ], [ -0.64064, 46.39696 ], [ -0.5378, 46.38647 ], [ -0.65687, 46.31491 ], [ -0.7472, 46.30282 ], [ -0.80375, 46.34264 ], [ -0.93102, 46.31004 ], [ -0.9631, 46.32262 ], [ -0.92963, 46.37152 ], [ -1.05338, 46.349 ], [ -1.09573, 46.31207 ], [ -1.20306, 46.31574 ], [ -1.20739, 46.26657 ], [ -1.2959, 46.32393 ], [ -1.27228, 46.28942 ], [ -1.29681, 46.28985 ], [ -1.34313, 46.34285 ], [ -1.46594, 46.34236 ], [ -1.51507, 46.4043 ], [ -1.64789, 46.42016 ], [ -1.81235, 46.49342 ], [ -1.85702, 46.60985 ], [ -2.14206, 46.81906 ], [ -2.15503, 46.88965 ], [ -2.11323, 46.89601 ], [ -2.02933, 47.00985 ], [ -1.98041, 47.02891 ], [ -2.10344, 47.11436 ], [ -2.24721, 47.13247 ], [ -2.16706, 47.16618 ], [ -2.16999, 47.26848 ], [ -2.29818, 47.23312 ], [ -2.37516, 47.2788 ], [ -2.4316, 47.25832 ], [ -2.54636, 47.29065 ], [ -2.50291, 47.32875 ], [ -2.55894, 47.37457 ], [ -2.4335, 47.41306 ], [ -2.45849, 47.44812 ] ] ], [ [ [ -2.19807, 46.95117 ], [ -2.26438, 46.96088 ], [ -2.30759, 47.02465 ], [ -2.22562, 47.01685 ], [ -2.2323, 46.97446 ], [ -2.14824, 46.93831 ], [ -2.1548, 46.89512 ], [ -2.19807, 46.95117 ] ] ], [ [ [ -2.30479, 46.70942 ], [ -2.28351, 46.68787 ], [ -2.33089, 46.68699 ], [ -2.40048, 46.72606 ], [ -2.30479, 46.70942 ] ] ], [ [ [ -2.62284, 47.40975 ], [ -2.62134, 47.41139 ], [ -2.61777, 47.41153 ], [ -2.6209, 47.41018 ], [ -2.62284, 47.40975 ] ] ] ] } },
{ "type": "Feature", "properties": { "code": "53", "nom": "Bretagne" }, "geometry": { "type": "MultiPolygon", "coordinates": [ [ [ [ -4.269750603348818, 48.279651578206206 ], [ -4.18737, 48.29524 ], [ -4.2819, 48.31247 ], [ -4.24916, 48.32684 ], [ -4.33322, 48.3131 ], [ -4.26452, 48.35818 ], [ -4.45739, 48.32707 ], [ -4.27009, 48.44504 ], [ -4.40169, 48.3896 ], [ -4.71666, 48.3296 ], [ -4.77366, 48.33031 ], [ -4.78072, 48.35859 ], [ -4.74608, 48.36565 ], [ -4.7864, 48.3613 ], [ -4.76069, 48.37817 ], [ -4.79542, 48.41466 ], [ -4.76457, 48.46687 ], [ -4.71963, 48.4756 ], [ -4.76252, 48.4721 ], [ -4.77603, 48.51917 ], [ -4.70441, 48.57003 ], [ -4.50535, 48.5459 ], [ -4.61227, 48.57825 ], [ -4.59831, 48.60801 ], [ -4.47845, 48.57298 ], [ -4.56828, 48.60907 ], [ -4.54376, 48.63649 ], [ -4.39881, 48.63602 ], [ -4.43656, 48.65472 ], [ -4.32979, 48.67712 ], [ -4.29694, 48.63264 ], [ -4.12932, 48.69688 ], [ -4.05579, 48.67109 ], [ -4.05195, 48.70429 ], [ -3.97088, 48.72727 ], [ -3.95631, 48.61591 ], [ -3.93501, 48.59868 ], [ -3.95132, 48.65021 ], [ -3.92209, 48.67551 ], [ -3.85152, 48.6067 ], [ -3.81661, 48.62859 ], [ -3.86426, 48.67133 ], [ -3.84626, 48.66018 ], [ -3.82095, 48.71822 ], [ -3.64327, 48.69591 ], [ -3.65914, 48.65921 ], [ -3.62405, 48.68624 ], [ -3.57298, 48.67492 ], [ -3.5843, 48.71853 ], [ -3.54959, 48.74667 ], [ -3.58593, 48.77739 ], [ -3.50352, 48.8387 ], [ -3.39754, 48.80075 ], [ -3.22448, 48.86992 ], [ -3.21969, 48.78378 ], [ -3.18282, 48.84377 ], [ -3.07417, 48.88202 ], [ -3.10145, 48.86662 ], [ -3.07162, 48.83057 ], [ -3.12348, 48.76008 ], [ -3.07277, 48.82042 ], [ -3.00899, 48.81965 ], [ -3.0464, 48.78557 ], [ -2.92846, 48.75475 ], [ -2.9451, 48.72081 ], [ -2.82653, 48.65536 ], [ -2.82386, 48.59721 ], [ -2.71427, 48.55564 ], [ -2.68157, 48.4917 ], [ -2.68209, 48.53201 ], [ -2.63029, 48.52609 ], [ -2.55288, 48.59953 ], [ -2.47343, 48.62252 ], [ -2.48786, 48.64515 ], [ -2.41709, 48.63309 ], [ -2.31772, 48.68865 ], [ -2.28521, 48.66448 ], [ -2.33592, 48.62001 ], [ -2.31662, 48.6104 ], [ -2.24742, 48.64605 ], [ -2.21286, 48.57276 ], [ -2.1951, 48.60902 ], [ -2.17686, 48.57623 ], [ -2.14895, 48.61855 ], [ -2.12371, 48.60441 ], [ -2.15067, 48.63474 ], [ -2.05668, 48.63985 ], [ -2.00689, 48.56611 ], [ -1.97247, 48.53684 ], [ -1.99476, 48.4919 ], [ -1.94818, 48.51917 ], [ -1.98704, 48.58451 ], [ -1.95419, 48.57898 ], [ -2.01334, 48.59951 ], [ -2.02858, 48.65031 ], [ -1.93712, 48.70234 ], [ -1.84512, 48.71175 ], [ -1.8358, 48.6803 ], [ -1.87212, 48.64572 ], [ -1.84733, 48.61759 ], [ -1.57109, 48.62645 ], [ -1.48995, 48.48937 ], [ -1.42795, 48.46192 ], [ -1.35393, 48.46783 ], [ -1.25427, 48.54327 ], [ -1.07016, 48.50849 ], [ -1.08359, 48.43373 ], [ -1.04505, 48.32818 ], [ -1.10196, 48.2625 ], [ -1.01577, 48.00356 ], [ -1.1553, 47.96554 ], [ -1.24588, 47.77672 ], [ -1.47823, 47.83588 ], [ -1.47054, 47.80336 ], [ -1.62306, 47.76357 ], [ -1.65751, 47.70944 ], [ -1.85831, 47.70827 ], [ -1.96124, 47.67092 ], [ -1.97438, 47.69394 ], [ -2.0812, 47.6502 ], [ -2.09855, 47.53396 ], [ -2.15602, 47.52203 ], [ -2.16462, 47.48915 ], [ -2.29642, 47.51599 ], [ -2.31697, 47.46129 ], [ -2.42303, 47.47711 ], [ -2.48052, 47.44126 ], [ -2.501, 47.49272 ], [ -2.42053, 47.49528 ], [ -2.53422, 47.52806 ], [ -2.63188, 47.50457 ], [ -2.56532, 47.53427 ], [ -2.58685, 47.56352 ], [ -2.60435, 47.53103 ], [ -2.61064, 47.5676 ], [ -2.62602, 47.53069 ], [ -2.66416, 47.54857 ], [ -2.62113, 47.52541 ], [ -2.67492, 47.49186 ], [ -2.79372, 47.48419 ], [ -2.91962, 47.54772 ], [ -2.73078, 47.5423 ], [ -2.68369, 47.60536 ], [ -2.71245, 47.64841 ], [ -2.71113, 47.59331 ], [ -2.79408, 47.64501 ], [ -2.78328, 47.62093 ], [ -2.86278, 47.62208 ], [ -2.89046, 47.57415 ], [ -2.9182, 47.60273 ], [ -2.93676, 47.58571 ], [ -2.93637, 47.62602 ], [ -2.97829, 47.65909 ], [ -2.97015, 47.58834 ], [ -2.92884, 47.55474 ], [ -2.99443, 47.59069 ], [ -2.98899, 47.567 ], [ -3.02456, 47.59205 ], [ -3.01918, 47.56724 ], [ -3.04474, 47.58738 ], [ -3.09543, 47.56374 ], [ -3.12703, 47.59836 ], [ -3.12975, 47.52191 ], [ -3.08097, 47.47038 ], [ -3.13297, 47.47496 ], [ -3.15961, 47.5256 ], [ -3.13975, 47.5796 ], [ -3.21087, 47.64303 ], [ -3.20921, 47.6698 ], [ -3.13232, 47.70153 ], [ -3.16884, 47.69687 ], [ -3.14908, 47.71642 ], [ -3.10311, 47.71823 ], [ -3.15262, 47.71891 ], [ -3.13484, 47.74734 ], [ -3.20083, 47.74489 ], [ -3.16569, 47.70455 ], [ -3.21626, 47.69579 ], [ -3.2146, 47.64488 ], [ -3.35929, 47.68693 ], [ -3.27765, 47.69032 ], [ -3.36541, 47.7103 ], [ -3.27773, 47.79441 ], [ -3.34425, 47.74159 ], [ -3.38851, 47.82828 ], [ -3.35583, 47.73241 ], [ -3.45013, 47.69515 ], [ -3.52865, 47.76544 ], [ -3.54208, 47.86284 ], [ -3.53863, 47.76264 ], [ -3.68084, 47.77679 ], [ -3.72262, 47.80335 ], [ -3.64117, 47.8284 ], [ -3.73268, 47.80346 ], [ -3.75183, 47.84716 ], [ -3.74196, 47.79748 ], [ -3.85605, 47.78961 ], [ -3.90245, 47.83572 ], [ -3.88063, 47.85916 ], [ -3.90921, 47.85033 ], [ -3.97729, 47.90968 ], [ -3.97711, 47.8538 ], [ -4.09936, 47.8625 ], [ -4.139641377022777, 47.904077340232412 ], [ -4.14561, 47.89738 ], [ -4.17633, 47.90713 ], [ -4.11331, 47.86204 ], [ -4.16981, 47.83949 ], [ -4.17883, 47.87897 ], [ -4.21565, 47.86603 ], [ -4.15884, 47.83154 ], [ -4.18298, 47.80022 ], [ -4.37419, 47.79798 ], [ -4.34604, 47.84021 ], [ -4.38359, 47.92086 ], [ -4.53671, 48.01164 ], [ -4.48818, 48.03845 ], [ -4.53971, 48.03828 ], [ -4.56475, 47.99983 ], [ -4.7408, 48.04058 ], [ -4.41613, 48.10672 ], [ -4.30439, 48.08943 ], [ -4.27308, 48.15418 ], [ -4.31612, 48.20382 ], [ -4.46391, 48.23938 ], [ -4.55413, 48.16777 ], [ -4.57156, 48.23147 ], [ -4.54329, 48.24908 ], [ -4.62331, 48.25323 ], [ -4.62944, 48.2808 ], [ -4.56992, 48.28194 ], [ -4.5826, 48.31941 ], [ -4.53443, 48.34186 ], [ -4.55959, 48.30565 ], [ -4.53577, 48.28394 ], [ -4.4993, 48.31117 ], [ -4.5026, 48.28086 ], [ -4.27236, 48.29601 ], [ -4.269750603348818, 48.279651578206206 ] ], [ [ -4.269260378023027, 48.276578334186503 ], [ -4.26619, 48.25733 ], [ -4.11357, 48.24456 ], [ -4.11685, 48.21828 ], [ -4.09695, 48.25554 ], [ -4.269260378023027, 48.276578334186503 ] ], [ [ -4.129134048190734, 47.915867523058601 ], [ -4.07775, 47.93736 ], [ -4.10949, 47.94269 ], [ -4.11717, 47.9835 ], [ -4.1108, 47.93644 ], [ -4.129134048190734, 47.915867523058601 ] ] ], [ [ [ -3.23545, 47.32382 ], [ -3.26355, 47.35226 ], [ -3.2447, 47.38762 ], [ -3.0559, 47.30817 ], [ -3.09184, 47.2784 ], [ -3.21838, 47.29244 ], [ -3.23545, 47.32382 ] ] ], [ [ [ -3.42179, 47.62 ], [ -3.46537, 47.62148 ], [ -3.50826, 47.64205 ], [ -3.46321, 47.64805 ], [ -3.41993, 47.62433 ], [ -3.42179, 47.62 ] ] ], [ [ [ -5.1026, 48.43612 ], [ -5.09875, 48.45629 ], [ -5.14026, 48.44804 ], [ -5.10672, 48.47181 ], [ -5.03438, 48.46332 ], [ -5.1026, 48.43612 ] ] ] ] } },
{ "type": "Feature", "properties": { "code": "75", "nom": "Nouvelle-Aquitaine" }, "geometry": { "type": "MultiPolygon", "coordinates": [ [ [ [ -1.241872542146989, 44.575326374817557 ], [ -1.2438, 44.57299 ], [ -1.23902, 44.59278 ], [ -1.23788, 44.59169 ], [ -1.235465261410992, 44.586574383278197 ], [ -1.19524, 44.65719 ], [ -1.00362, 44.64836 ], [ -1.16756, 44.77604 ], [ -1.26205, 44.6322 ], [ -1.15619, 45.47611 ], [ -1.0912, 45.56241 ], [ -0.989, 45.58526 ], [ -1.20932, 45.6967 ], [ -1.23015, 45.68906 ], [ -1.19597, 45.67363 ], [ -1.23005, 45.67707 ], [ -1.24257, 45.78157 ], [ -1.1337, 45.80276 ], [ -1.17024, 45.85593 ], [ -1.11361, 45.8593 ], [ -1.07379, 45.91423 ], [ -1.09961, 45.94438 ], [ -1.06432, 45.94991 ], [ -1.12145, 46.00297 ], [ -1.05269, 46.01118 ], [ -1.10073, 46.0938 ], [ -1.14307, 46.10632 ], [ -1.12823, 46.12655 ], [ -1.17328, 46.13803 ], [ -1.16072, 46.15549 ], [ -1.24149, 46.16274 ], [ -1.11116, 46.26134 ], [ -1.12364, 46.32179 ], [ -1.07547, 46.3175 ], [ -1.05338, 46.349 ], [ -0.92963, 46.37152 ], [ -0.9631, 46.32262 ], [ -0.93102, 46.31004 ], [ -0.80375, 46.34264 ], [ -0.72191, 46.30237 ], [ -0.5378, 46.38647 ], [ -0.64064, 46.39696 ], [ -0.60766, 46.45486 ], [ -0.64403, 46.52184 ], [ -0.60222, 46.54804 ], [ -0.61405, 46.62161 ], [ -0.65888, 46.63592 ], [ -0.63699, 46.66333 ], [ -0.68073, 46.68694 ], [ -0.65619, 46.70077 ], [ -0.72705, 46.76642 ], [ -0.69875, 46.81088 ], [ -0.78165, 46.84283 ], [ -0.83085, 46.88515 ], [ -0.8074, 46.91983 ], [ -0.90239, 46.97075 ], [ -0.78758, 47.00514 ], [ -0.59549, 46.99795 ], [ -0.54253, 47.03234 ], [ -0.5573, 47.06437 ], [ -0.49445, 47.08309 ], [ -0.45956, 47.08241 ], [ -0.48038, 47.05363 ], [ -0.39592, 47.09159 ], [ -0.17955, 47.108 ], [ -0.14055, 47.09705 ], [ -0.17902, 47.07017 ], [ -0.1289, 47.05424 ], [ -0.0859, 47.10101 ], [ -0.03562, 47.08626 ], [ -0.01218, 47.15595 ], [ 0.0492, 47.16889 ], [ 0.08135, 47.11854 ], [ 0.18316, 47.11438 ], [ 0.20095, 47.09139 ], [ 0.17577, 47.06064 ], [ 0.30538, 47.0527 ], [ 0.29187, 46.98924 ], [ 0.32383, 46.93145 ], [ 0.59835, 46.95676 ], [ 0.56774, 47.00629 ], [ 0.69257, 46.97431 ], [ 0.70432, 46.90329 ], [ 0.91323, 46.72571 ], [ 0.92789, 46.69265 ], [ 0.8939, 46.62861 ], [ 0.91587, 46.59663 ], [ 1.14594, 46.5064 ], [ 1.15182, 46.4487 ], [ 1.21269, 46.43222 ], [ 1.18219, 46.37608 ], [ 1.30306, 46.37099 ], [ 1.35602, 46.40012 ], [ 1.41519, 46.34722 ], [ 1.52191, 46.4264 ], [ 1.5462, 46.39346 ], [ 1.60925, 46.42312 ], [ 1.62675, 46.38851 ], [ 1.6836, 46.41818 ], [ 1.72704, 46.39021 ], [ 1.74759, 46.45002 ], [ 1.78652, 46.45525 ], [ 1.83978, 46.42572 ], [ 1.97875, 46.44152 ], [ 2.08894, 46.4089 ], [ 2.24987, 46.42636 ], [ 2.33139, 46.37872 ], [ 2.30275, 46.35442 ], [ 2.32127, 46.32901 ], [ 2.36497, 46.3107 ], [ 2.38608, 46.33197 ], [ 2.42134, 46.28462 ], [ 2.48076, 46.28101 ], [ 2.5598, 46.17337 ], [ 2.55039, 46.08607 ], [ 2.60251, 46.03346 ], [ 2.60902, 45.96665 ], [ 2.56357, 45.95559 ], [ 2.49223, 45.86403 ], [ 2.38802, 45.82738 ], [ 2.52301, 45.71145 ], [ 2.52014, 45.64069 ], [ 2.4875, 45.6424 ], [ 2.46117, 45.59646 ], [ 2.51684, 45.55302 ], [ 2.48754, 45.41816 ], [ 2.52787, 45.39161 ], [ 2.47662, 45.37028 ], [ 2.35066, 45.41292 ], [ 2.35976, 45.33651 ], [ 2.18932, 45.22211 ], [ 2.232, 45.16398 ], [ 2.17879, 45.1363 ], [ 2.17455, 45.08226 ], [ 2.09516, 45.05603 ], [ 2.13329, 44.98574 ], [ 1.94916, 44.95252 ], [ 1.90866, 44.97842 ], [ 1.80129, 44.92209 ], [ 1.62996, 45.03357 ], [ 1.53747, 45.04669 ], [ 1.40927, 45.006 ], [ 1.44235, 44.91655 ], [ 1.41225, 44.90979 ], [ 1.44192, 44.87758 ], [ 1.29827, 44.79619 ], [ 1.31605, 44.74037 ], [ 1.14673, 44.6708 ], [ 1.10321, 44.57173 ], [ 0.98152, 44.54444 ], [ 1.06408, 44.37851 ], [ 0.94238, 44.3446 ], [ 0.89638, 44.38184 ], [ 0.86917, 44.30989 ], [ 0.95079, 44.27506 ], [ 0.90597, 44.19012 ], [ 0.85302, 44.18391 ], [ 0.894, 44.13789 ], [ 0.78857, 44.14439 ], [ 0.79889, 44.11064 ], [ 0.66264, 44.02411 ], [ 0.59376, 44.07929 ], [ 0.30285, 43.99098 ], [ 0.23138, 44.0228 ], [ 0.15754, 43.97284 ], [ 0.12679, 44.00191 ], [ 0.05555, 43.96144 ], [ 0.05902, 43.89681 ], [ -0.0239, 43.92984 ], [ 0.00673, 43.95374 ], [ -0.03617, 43.98374 ], [ -0.09524, 43.92946 ], [ -0.22834, 43.91145 ], [ -0.18572, 43.86689 ], [ -0.20891, 43.85767 ], [ -0.19177, 43.8101 ], [ -0.22714, 43.80827 ], [ -0.19414, 43.73702 ], [ -0.25063, 43.70779 ], [ -0.24214, 43.65506 ], [ -0.2796, 43.61818 ], [ -0.2472, 43.61595 ], [ -0.24233, 43.58342 ], [ -0.09678, 43.58241 ], [ -0.09411, 43.54393 ], [ -0.06599, 43.54813 ], [ -0.01782, 43.47215 ], [ -0.06575, 43.46348 ], [ -0.06727, 43.41042 ], [ -0.00248, 43.44508 ], [ -0.00578, 43.37302 ], [ 0.0295, 43.34615 ], [ -0.04612, 43.30086 ], [ -0.01701, 43.27045 ], [ -0.07397, 43.22238 ], [ -0.06787, 43.17712 ], [ -0.1177, 43.18033 ], [ -0.14613, 43.12824 ], [ -0.19384, 43.11502 ], [ -0.18156, 43.05254 ], [ -0.28724, 43.00592 ], [ -0.28159, 42.93356 ], [ -0.32717, 42.9165 ], [ -0.31086, 42.85314 ], [ -0.38337, 42.801 ], [ -0.5011, 42.82784 ], [ -0.56693, 42.78053 ], [ -0.60363, 42.83262 ], [ -0.73185, 42.89605 ], [ -0.75296, 42.96771 ], [ -0.94383, 42.95319 ], [ -1.11471, 43.02386 ], [ -1.14221, 43.00798 ], [ -1.30928, 43.06865 ], [ -1.27019, 43.11857 ], [ -1.34511, 43.09402 ], [ -1.3537, 43.02824 ], [ -1.44122, 43.04631 ], [ -1.47321, 43.08676 ], [ -1.38174, 43.18963 ], [ -1.38854, 43.25856 ], [ -1.53532, 43.29464 ], [ -1.60867, 43.25191 ], [ -1.62407, 43.30607 ], [ -1.72975, 43.29568 ], [ -1.78713, 43.35137 ], [ -1.78875, 43.37838 ], [ -1.66977, 43.38804 ], [ -1.60453, 43.43039 ], [ -1.4482, 43.64228 ], [ -1.30648, 44.17062 ], [ -1.26019, 44.54317 ], [ -1.241872542146989, 44.575326374817557 ] ], [ [ -0.10333, 43.35858 ], [ -0.1102, 43.31218 ], [ -0.07504, 43.30714 ], [ -0.06493, 43.355 ], [ -0.10333, 43.35858 ] ], [ [ -0.10308, 43.24282 ], [ -0.07929, 43.27166 ], [ -0.11149, 43.3104 ], [ -0.14062, 43.27194 ], [ -0.10308, 43.24282 ] ] ], [ [ [ -1.25027, 45.84597 ], [ -1.38598, 45.95239 ], [ -1.4124, 46.04789 ], [ -1.23755, 45.98391 ], [ -1.23377, 45.92706 ], [ -1.18741, 45.8866 ], [ -1.22626, 45.80369 ], [ -1.25027, 45.84597 ] ] ], [ [ [ -1.4809, 46.21003 ], [ -1.41294, 46.23014 ], [ -1.42923, 46.20586 ], [ -1.25495, 46.16352 ], [ -1.31371, 46.14372 ], [ -1.53394, 46.20232 ], [ -1.56293, 46.24384 ], [ -1.50058, 46.25818 ], [ -1.47455, 46.23326 ], [ -1.51319, 46.22258 ], [ -1.4809, 46.21003 ] ] ] ] } },
{ "type": "Feature", "properties": { "code": "76", "nom": "Occitanie" }, "geometry": { "type": "MultiPolygon", "coordinates": [ [ [ [ 1.78613, 42.57362 ], [ 1.72612, 42.58969 ], [ 1.73607, 42.61715 ], [ 1.54925, 42.65578 ], [ 1.47877, 42.65165 ], [ 1.47656, 42.61302 ], [ 1.43783, 42.60321 ], [ 1.35738, 42.71941 ], [ 1.16593, 42.70871 ], [ 1.07908, 42.78828 ], [ 0.92612, 42.7891 ], [ 0.70838, 42.8614 ], [ 0.65901, 42.83853 ], [ 0.64539, 42.78354 ], [ 0.67647, 42.69101 ], [ 0.42275, 42.69082 ], [ 0.3601, 42.72429 ], [ 0.29514, 42.67316 ], [ 0.25988, 42.71581 ], [ 0.17573, 42.737 ], [ -0.01658, 42.68489 ], [ -0.1068, 42.7205 ], [ -0.16087, 42.79832 ], [ -0.30636, 42.84121 ], [ -0.32717, 42.9165 ], [ -0.28159, 42.93356 ], [ -0.29324, 42.99273 ], [ -0.26062, 43.03595 ], [ -0.18156, 43.05254 ], [ -0.19384, 43.11502 ], [ -0.14613, 43.12824 ], [ -0.1177, 43.18033 ], [ -0.06787, 43.17712 ], [ -0.07397, 43.22238 ], [ -0.01701, 43.27045 ], [ -0.04612, 43.30086 ], [ 0.0295, 43.34615 ], [ -0.00578, 43.37302 ], [ -0.00248, 43.44508 ], [ -0.06727, 43.41042 ], [ -0.06575, 43.46348 ], [ -0.01782, 43.47215 ], [ -0.06599, 43.54813 ], [ -0.09411, 43.54393 ], [ -0.09678, 43.58241 ], [ -0.24233, 43.58342 ], [ -0.2472, 43.61595 ], [ -0.2796, 43.61818 ], [ -0.24214, 43.65506 ], [ -0.25063, 43.70779 ], [ -0.19414, 43.73702 ], [ -0.22714, 43.80827 ], [ -0.19177, 43.8101 ], [ -0.20891, 43.85767 ], [ -0.18572, 43.86689 ], [ -0.23934, 43.89828 ], [ -0.17911, 43.93792 ], [ -0.09524, 43.92946 ], [ -0.03617, 43.98374 ], [ 0.00673, 43.95374 ], [ -0.0239, 43.92984 ], [ 0.05902, 43.89681 ], [ 0.05555, 43.96144 ], [ 0.12679, 44.00191 ], [ 0.15754, 43.97284 ], [ 0.23138, 44.0228 ], [ 0.30285, 43.99098 ], [ 0.59376, 44.07929 ], [ 0.67709, 44.02697 ], [ 0.75683, 44.1074 ], [ 0.79889, 44.11064 ], [ 0.78857, 44.14439 ], [ 0.894, 44.13789 ], [ 0.85302, 44.18391 ], [ 0.90597, 44.19012 ], [ 0.95079, 44.27506 ], [ 0.86917, 44.30989 ], [ 0.89638, 44.38184 ], [ 0.94238, 44.3446 ], [ 1.06408, 44.37851 ], [ 0.98152, 44.54444 ], [ 1.10321, 44.57173 ], [ 1.14673, 44.6708 ], [ 1.31605, 44.74037 ], [ 1.29827, 44.79619 ], [ 1.44192, 44.87758 ], [ 1.41225, 44.90979 ], [ 1.44235, 44.91655 ], [ 1.40927, 45.006 ], [ 1.53747, 45.04669 ], [ 1.62996, 45.03357 ], [ 1.80129, 44.92209 ], [ 1.90866, 44.97842 ], [ 1.94916, 44.95252 ], [ 2.06291, 44.97651 ], [ 2.10728, 44.91028 ], [ 2.08434, 44.88567 ], [ 2.16772, 44.81096 ], [ 2.12995, 44.69867 ], [ 2.15953, 44.69741 ], [ 2.16873, 44.63861 ], [ 2.20748, 44.61553 ], [ 2.21591, 44.65069 ], [ 2.28529, 44.66676 ], [ 2.35453, 44.64013 ], [ 2.48319, 44.65034 ], [ 2.56042, 44.72118 ], [ 2.55058, 44.75608 ], [ 2.6, 44.79305 ], [ 2.60268, 44.84317 ], [ 2.73825, 44.94122 ], [ 2.77609, 44.90896 ], [ 2.77385, 44.85474 ], [ 2.85968, 44.87446 ], [ 2.88786, 44.78921 ], [ 2.93775, 44.77487 ], [ 2.91147, 44.76182 ], [ 2.93774, 44.68055 ], [ 2.98168, 44.64468 ], [ 3.10398, 44.88656 ], [ 3.1411, 44.90332 ], [ 3.18855, 44.86145 ], [ 3.23633, 44.88791 ], [ 3.24841, 44.93951 ], [ 3.28602, 44.92638 ], [ 3.37257, 44.97545 ], [ 3.47824, 44.80968 ], [ 3.58892, 44.8264 ], [ 3.59373, 44.87657 ], [ 3.63021, 44.88093 ], [ 3.67244, 44.85683 ], [ 3.66323, 44.82983 ], [ 3.74255, 44.83895 ], [ 3.87546, 44.74063 ], [ 3.90517, 44.59271 ], [ 3.95148, 44.57059 ], [ 3.98765, 44.47278 ], [ 4.06844, 44.40511 ], [ 4.04048, 44.3913 ], [ 4.04683, 44.31938 ], [ 4.12675, 44.33773 ], [ 4.25789, 44.26481 ], [ 4.32577, 44.33832 ], [ 4.3913, 44.34694 ], [ 4.39538, 44.29086 ], [ 4.44042, 44.28342 ], [ 4.45422, 44.33963 ], [ 4.50563, 44.34402 ], [ 4.63806, 44.28297 ], [ 4.72207, 44.18742 ], [ 4.72063, 44.08179 ], [ 4.7583, 44.08792 ], [ 4.84334, 44.00986 ], [ 4.77902, 43.93789 ], [ 4.64191, 43.86748 ], [ 4.66679, 43.84612 ], [ 4.61228, 43.72475 ], [ 4.62745, 43.68543 ], [ 4.48724, 43.69924 ], [ 4.42617, 43.62448 ], [ 4.47252, 43.61204 ], [ 4.46068, 43.58926 ], [ 4.33414, 43.53545 ], [ 4.31399, 43.55557 ], [ 4.32467, 43.5282 ], [ 4.23968, 43.49917 ], [ 4.23028, 43.46019 ], [ 4.1272, 43.48945 ], [ 4.11736, 43.54908 ], [ 3.99547, 43.5485 ], [ 3.64313, 43.38314 ], [ 3.50951, 43.27172 ], [ 3.36908, 43.27925 ], [ 3.16971, 43.15876 ], [ 3.05094, 42.98621 ], [ 3.02447, 42.70388 ], [ 3.05184, 42.54395 ], [ 3.1411, 42.51521 ], [ 3.12754, 42.48732 ], [ 3.1736, 42.43587 ], [ 3.0861, 42.42519 ], [ 3.04046, 42.47439 ], [ 2.94709, 42.4818 ], [ 2.83954, 42.45929 ], [ 2.77697, 42.41195 ], [ 2.67394, 42.4047 ], [ 2.65149, 42.38641 ], [ 2.67548, 42.34238 ], [ 2.57086, 42.35795 ], [ 2.53272, 42.33305 ], [ 2.48121, 42.34064 ], [ 2.43246, 42.39326 ], [ 2.25672, 42.43844 ], [ 2.15088, 42.42113 ], [ 2.08463, 42.36177 ], [ 2.01541, 42.34678 ], [ 1.96474, 42.38164 ], [ 1.93688, 42.45359 ], [ 1.73067, 42.49275 ], [ 1.73453, 42.54908 ], [ 1.78613, 42.57362 ] ], [ [ 1.96006, 42.47045 ], [ 2.01438, 42.45168 ], [ 1.98953, 42.49354 ], [ 1.96006, 42.47045 ] ] ], [ [ [ 3.50066, 43.2629 ], [ 3.50223, 43.26419 ], [ 3.50355, 43.2631 ], [ 3.50066, 43.2629 ] ] ], [ [ [ -0.10333, 43.35858 ], [ -0.06493, 43.355 ], [ -0.07504, 43.30714 ], [ -0.1102, 43.31218 ], [ -0.10333, 43.35858 ] ] ], [ [ [ -0.10308, 43.24282 ], [ -0.14062, 43.27194 ], [ -0.11149, 43.3104 ], [ -0.07929, 43.27166 ], [ -0.10308, 43.24282 ] ] ] ] } },
{ "type": "Feature", "properties": { "code": "84", "nom": "Auvergne-Rhône-Alpes" }, "geometry": { "type": "Polygon", "coordinates": [ [ [ 4.78021, 46.17668 ], [ 4.94125, 46.51965 ], [ 5.05643, 46.48393 ], [ 5.20186, 46.50826 ], [ 5.21506, 46.46836 ], [ 5.3149, 46.44513 ], [ 5.2988, 46.41268 ], [ 5.37788, 46.38223 ], [ 5.40465, 46.31034 ], [ 5.42366, 46.34768 ], [ 5.43783, 46.3157 ], [ 5.46692, 46.32327 ], [ 5.47385, 46.26428 ], [ 5.59354, 46.29436 ], [ 5.64314, 46.34478 ], [ 5.71472, 46.30877 ], [ 5.72518, 46.26073 ], [ 5.86919, 46.26497 ], [ 6.05717, 46.41631 ], [ 6.09819, 46.40879 ], [ 6.17022, 46.36648 ], [ 6.10237, 46.28485 ], [ 6.12425, 46.25101 ], [ 5.97474, 46.21512 ], [ 5.99529, 46.18299 ], [ 5.95729, 46.12794 ], [ 6.13618, 46.14153 ], [ 6.29447, 46.22492 ], [ 6.30953, 46.25625 ], [ 6.26662, 46.24747 ], [ 6.23758, 46.27775 ], [ 6.30374, 46.36626 ], [ 6.38911, 46.34012 ], [ 6.50904, 46.40403 ], [ 6.72387, 46.40796 ], [ 6.80531, 46.39414 ], [ 6.77199, 46.35031 ], [ 6.86451, 46.28299 ], [ 6.80366, 46.20435 ], [ 6.79654, 46.13862 ], [ 6.89993, 46.1239 ], [ 6.87558, 46.04774 ], [ 6.93392, 46.06597 ], [ 7.03761, 45.9543 ], [ 7.04507, 45.92245 ], [ 6.99145, 45.86798 ], [ 6.86738, 45.82409 ], [ 6.81889, 45.8362 ], [ 6.80842, 45.72515 ], [ 6.91483, 45.65173 ], [ 7.00069, 45.6399 ], [ 6.97801, 45.58718 ], [ 7.00033, 45.50442 ], [ 7.18427, 45.40748 ], [ 7.11117, 45.32694 ], [ 7.13759, 45.25569 ], [ 7.07185, 45.20995 ], [ 6.96575, 45.20795 ], [ 6.94713, 45.17076 ], [ 6.89161, 45.16704 ], [ 6.89235, 45.13682 ], [ 6.76795, 45.15974 ], [ 6.62999, 45.10933 ], [ 6.51042, 45.109 ], [ 6.48049, 45.09417 ], [ 6.48623, 45.05607 ], [ 6.36488, 45.07017 ], [ 6.33448, 45.12284 ], [ 6.23154, 45.11061 ], [ 6.24452, 45.07171 ], [ 6.20393, 45.01247 ], [ 6.32352, 44.99907 ], [ 6.32292, 44.95302 ], [ 6.35884, 44.94128 ], [ 6.35395, 44.85348 ], [ 6.2886, 44.87406 ], [ 6.1329, 44.8645 ], [ 6.0565, 44.81581 ], [ 6.01594, 44.83548 ], [ 5.94952, 44.80453 ], [ 5.98015, 44.78118 ], [ 5.95112, 44.75962 ], [ 5.82709, 44.75969 ], [ 5.80125, 44.70828 ], [ 5.83044, 44.69055 ], [ 5.79062, 44.65329 ], [ 5.64172, 44.65107 ], [ 5.64719, 44.61156 ], [ 5.59725, 44.54327 ], [ 5.6645, 44.50189 ], [ 5.61174, 44.4696 ], [ 5.45841, 44.49939 ], [ 5.46443, 44.44789 ], [ 5.4983, 44.43732 ], [ 5.4184, 44.42477 ], [ 5.43191, 44.37099 ], [ 5.49129, 44.33786 ], [ 5.63082, 44.33299 ], [ 5.6079, 44.30667 ], [ 5.68657, 44.26692 ], [ 5.68642, 44.19464 ], [ 5.64327, 44.17072 ], [ 5.67794, 44.14638 ], [ 5.63114, 44.15058 ], [ 5.60205, 44.19149 ], [ 5.5414, 44.13263 ], [ 5.45472, 44.11923 ], [ 5.43576, 44.15225 ], [ 5.38324, 44.15528 ], [ 5.38453, 44.20118 ], [ 5.35535, 44.21456 ], [ 5.1549, 44.23094 ], [ 5.16775, 44.31483 ], [ 5.10797, 44.27725 ], [ 5.06056, 44.30814 ], [ 4.82665, 44.22833 ], [ 4.80456, 44.3039 ], [ 4.76225, 44.32538 ], [ 4.65062, 44.32981 ], [ 4.64922, 44.27036 ], [ 4.50368, 44.34419 ], [ 4.45422, 44.33963 ], [ 4.44042, 44.28342 ], [ 4.39979, 44.28795 ], [ 4.38818, 44.34717 ], [ 4.29043, 44.31673 ], [ 4.25789, 44.26481 ], [ 4.12675, 44.33773 ], [ 4.05145, 44.31732 ], [ 4.04048, 44.3913 ], [ 4.06844, 44.40511 ], [ 3.98765, 44.47278 ], [ 3.95148, 44.57059 ], [ 3.90517, 44.59271 ], [ 3.87546, 44.74063 ], [ 3.74255, 44.83895 ], [ 3.66323, 44.82983 ], [ 3.67244, 44.85683 ], [ 3.63021, 44.88093 ], [ 3.59373, 44.87657 ], [ 3.58892, 44.8264 ], [ 3.47824, 44.80968 ], [ 3.3722, 44.97554 ], [ 3.28602, 44.92638 ], [ 3.24841, 44.93951 ], [ 3.23633, 44.88791 ], [ 3.18855, 44.86145 ], [ 3.1411, 44.90332 ], [ 3.10398, 44.88656 ], [ 2.98168, 44.64468 ], [ 2.93774, 44.68055 ], [ 2.91147, 44.76182 ], [ 2.93775, 44.77487 ], [ 2.88786, 44.78921 ], [ 2.85968, 44.87446 ], [ 2.77385, 44.85474 ], [ 2.77609, 44.90896 ], [ 2.73825, 44.94122 ], [ 2.62317, 44.86647 ], [ 2.6, 44.79305 ], [ 2.55058, 44.75608 ], [ 2.56042, 44.72118 ], [ 2.46804, 44.64289 ], [ 2.28529, 44.66676 ], [ 2.21591, 44.65069 ], [ 2.20748, 44.61553 ], [ 2.16873, 44.63861 ], [ 2.15953, 44.69741 ], [ 2.12995, 44.69867 ], [ 2.16772, 44.81096 ], [ 2.08434, 44.88567 ], [ 2.10728, 44.91028 ], [ 2.06291, 44.97651 ], [ 2.13645, 44.99016 ], [ 2.09516, 45.05603 ], [ 2.17455, 45.08226 ], [ 2.17879, 45.1363 ], [ 2.232, 45.16398 ], [ 2.18932, 45.22211 ], [ 2.35976, 45.33651 ], [ 2.35066, 45.41292 ], [ 2.47662, 45.37028 ], [ 2.52318, 45.38281 ], [ 2.48754, 45.41816 ], [ 2.51684, 45.55302 ], [ 2.46117, 45.59646 ], [ 2.4875, 45.6424 ], [ 2.52014, 45.64069 ], [ 2.52301, 45.71145 ], [ 2.38802, 45.82738 ], [ 2.49223, 45.86403 ], [ 2.61157, 45.97208 ], [ 2.51462, 46.23994 ], [ 2.39186, 46.32998 ], [ 2.36497, 46.3107 ], [ 2.30099, 46.34223 ], [ 2.33789, 46.36414 ], [ 2.28673, 46.38285 ], [ 2.28335, 46.44928 ], [ 2.3654, 46.51785 ], [ 2.53665, 46.5197 ], [ 2.61496, 46.55328 ], [ 2.56838, 46.60938 ], [ 2.5931, 46.64658 ], [ 2.56713, 46.65374 ], [ 2.62864, 46.65954 ], [ 2.62337, 46.68964 ], [ 2.70498, 46.73939 ], [ 2.84677, 46.72706 ], [ 2.91327, 46.79103 ], [ 3.01752, 46.7999 ], [ 3.19882, 46.67951 ], [ 3.26979, 46.71674 ], [ 3.34671, 46.68442 ], [ 3.42182, 46.71373 ], [ 3.45305, 46.69009 ], [ 3.44208, 46.662 ], [ 3.48183, 46.65067 ], [ 3.56115, 46.68862 ], [ 3.54811, 46.72232 ], [ 3.598, 46.72398 ], [ 3.57569, 46.74952 ], [ 3.59776, 46.76203 ], [ 3.72399, 46.62633 ], [ 3.74185, 46.53951 ], [ 4.00081, 46.46245 ], [ 3.97722, 46.39922 ], [ 4.00457, 46.32748 ], [ 3.89722, 46.29246 ], [ 3.8983, 46.21024 ], [ 3.97255, 46.20271 ], [ 3.99012, 46.16911 ], [ 4.20791, 46.19484 ], [ 4.28123, 46.15594 ], [ 4.37394, 46.18684 ], [ 4.40581, 46.29606 ], [ 4.504, 46.26713 ], [ 4.56025, 46.29524 ], [ 4.61856, 46.26479 ], [ 4.6792, 46.30626 ], [ 4.71039, 46.27857 ], [ 4.68174, 46.25549 ], [ 4.73666, 46.23247 ], [ 4.72726, 46.17912 ], [ 4.78021, 46.17668 ] ], [ [ 4.89291, 44.36482 ], [ 4.86953, 44.34508 ], [ 4.89166, 44.30425 ], [ 4.98702, 44.29271 ], [ 5.02389, 44.36056 ], [ 5.07206, 44.38041 ], [ 4.97044, 44.43137 ], [ 4.89291, 44.36482 ] ] ] } },
{ "type": "Feature", "properties": { "code": "93", "nom": "Provence-Alpes-Côte d'Azur" }, "geometry": { "type": "MultiPolygon", "coordinates": [ [ [ [ 4.88111751079212, 43.357192112407475 ], [ 4.83549, 43.32875 ], [ 4.5858, 43.36007 ], [ 4.55561, 43.38282 ], [ 4.5881, 43.42271 ], [ 4.5307, 43.45257 ], [ 4.23028, 43.46019 ], [ 4.23968, 43.49917 ], [ 4.32467, 43.5282 ], [ 4.31399, 43.55557 ], [ 4.33414, 43.53545 ], [ 4.46068, 43.58926 ], [ 4.47252, 43.61204 ], [ 4.42617, 43.62448 ], [ 4.48724, 43.69924 ], [ 4.62745, 43.68543 ], [ 4.61228, 43.72475 ], [ 4.66679, 43.84612 ], [ 4.64191, 43.86748 ], [ 4.84438, 43.98937 ], [ 4.78798, 44.06505 ], [ 4.70746, 44.10367 ], [ 4.72207, 44.18742 ], [ 4.65008, 44.26131 ], [ 4.65062, 44.32981 ], [ 4.77967, 44.31937 ], [ 4.82665, 44.22833 ], [ 5.06056, 44.30814 ], [ 5.10797, 44.27725 ], [ 5.16775, 44.31483 ], [ 5.1549, 44.23094 ], [ 5.35535, 44.21456 ], [ 5.38453, 44.20118 ], [ 5.38324, 44.15528 ], [ 5.43576, 44.15225 ], [ 5.45472, 44.11923 ], [ 5.5414, 44.13263 ], [ 5.60205, 44.19149 ], [ 5.63114, 44.15058 ], [ 5.67794, 44.14638 ], [ 5.64327, 44.17072 ], [ 5.68642, 44.19464 ], [ 5.68657, 44.26692 ], [ 5.6079, 44.30667 ], [ 5.63082, 44.33299 ], [ 5.49129, 44.33786 ], [ 5.43191, 44.37099 ], [ 5.4184, 44.42477 ], [ 5.4983, 44.43732 ], [ 5.46443, 44.44789 ], [ 5.45841, 44.49939 ], [ 5.61174, 44.4696 ], [ 5.6645, 44.50189 ], [ 5.59725, 44.54327 ], [ 5.64719, 44.61156 ], [ 5.64172, 44.65107 ], [ 5.79062, 44.65329 ], [ 5.83044, 44.69055 ], [ 5.80125, 44.70828 ], [ 5.82709, 44.75969 ], [ 5.95112, 44.75962 ], [ 5.98015, 44.78118 ], [ 5.94952, 44.80453 ], [ 6.01594, 44.83548 ], [ 6.0565, 44.81581 ], [ 6.1329, 44.8645 ], [ 6.2886, 44.87406 ], [ 6.35395, 44.85348 ], [ 6.35884, 44.94128 ], [ 6.32292, 44.95302 ], [ 6.32352, 44.99907 ], [ 6.20393, 45.01247 ], [ 6.24452, 45.07171 ], [ 6.22885, 45.10831 ], [ 6.26057, 45.12685 ], [ 6.33448, 45.12284 ], [ 6.36488, 45.07017 ], [ 6.4518, 45.05172 ], [ 6.48725, 45.05685 ], [ 6.48049, 45.09417 ], [ 6.51042, 45.109 ], [ 6.62482, 45.11524 ], [ 6.67388, 45.01962 ], [ 6.7454, 45.0143 ], [ 6.75071, 44.90565 ], [ 6.86324, 44.85061 ], [ 6.93121, 44.86353 ], [ 7.02384, 44.82307 ], [ 6.9994, 44.78968 ], [ 7.07711, 44.68092 ], [ 6.98707, 44.69014 ], [ 6.94834, 44.65482 ], [ 6.96837, 44.6198 ], [ 6.8534, 44.52881 ], [ 6.94809, 44.4297 ], [ 6.89287, 44.42078 ], [ 6.88743, 44.36105 ], [ 6.99572, 44.27988 ], [ 7.00852, 44.23524 ], [ 7.18613, 44.20135 ], [ 7.358, 44.11602 ], [ 7.67783, 44.17682 ], [ 7.66656, 44.13112 ], [ 7.71881, 44.08253 ], [ 7.66225, 44.02822 ], [ 7.65244, 43.97371 ], [ 7.56938, 43.94742 ], [ 7.56195, 43.89974 ], [ 7.49788, 43.87165 ], [ 7.53016, 43.78805 ], [ 7.48683, 43.749 ], [ 7.35587, 43.72073 ], [ 7.3313, 43.67452 ], [ 7.31472, 43.70653 ], [ 7.24065, 43.68777 ], [ 7.21162, 43.64732 ], [ 7.15698, 43.65349 ], [ 7.1218, 43.58704 ], [ 7.13637, 43.54458 ], [ 7.09626, 43.57089 ], [ 7.03773, 43.53471 ], [ 6.96333, 43.54216 ], [ 6.92398, 43.4505 ], [ 6.85631, 43.41152 ], [ 6.74549, 43.41789 ], [ 6.71655, 43.3475 ], [ 6.58387, 43.2773 ], [ 6.69763, 43.26647 ], [ 6.64664, 43.16771 ], [ 6.562, 43.18909 ], [ 6.49664, 43.15119 ], [ 6.38445, 43.14402 ], [ 6.36435, 43.08631 ], [ 6.20103, 43.11606 ], [ 6.15475, 43.07984 ], [ 6.17266, 43.03282 ], [ 6.14877, 43.0259 ], [ 6.09126, 43.03536 ], [ 6.13161, 43.04801 ], [ 6.11399, 43.08366 ], [ 6.02154, 43.07826 ], [ 5.92063, 43.12391 ], [ 5.88054, 43.105 ], [ 5.94704, 43.06775 ], [ 5.83112, 43.04898 ], [ 5.79239, 43.06869 ], [ 5.80821, 43.11519 ], [ 5.69488, 43.14359 ], [ 5.68674, 43.17968 ], [ 5.62417, 43.18698 ], [ 5.60414, 43.16035 ], [ 5.53569, 43.21417 ], [ 5.34182, 43.21257 ], [ 5.37605, 43.25516 ], [ 5.34546, 43.28161 ], [ 5.37348, 43.29418 ], [ 5.3142, 43.36003 ], [ 5.05019, 43.32495 ], [ 4.97, 43.42488 ], [ 4.8935, 43.40412 ], [ 4.90342, 43.42966 ], [ 4.86083, 43.45398 ], [ 4.87731, 43.41051 ], [ 4.82444, 43.42439 ], [ 4.87183, 43.39004 ], [ 4.82891, 43.37589 ], [ 4.88111751079212, 43.357192112407475 ] ], [ [ 5.11807, 43.51322 ], [ 5.01329, 43.55445 ], [ 5.00086, 43.4741 ], [ 5.05188, 43.46356 ], [ 5.06081, 43.40286 ], [ 5.13727, 43.40019 ], [ 5.2266, 43.45301 ], [ 5.20558, 43.492 ], [ 5.14585, 43.45806 ], [ 5.11807, 43.51322 ] ] ], [ [ [ 6.4348, 43.01554 ], [ 6.46799, 43.04406 ], [ 6.51069, 43.0479 ], [ 6.4776, 43.02788 ], [ 6.43418, 43.01475 ], [ 6.4348, 43.01554 ] ] ], [ [ [ 6.24407, 43.02004 ], [ 6.20563, 42.98181 ], [ 6.1613, 42.99888 ], [ 6.24407, 43.02004 ] ] ], [ [ [ 4.89291, 44.36482 ], [ 4.97044, 44.43137 ], [ 5.07206, 44.38041 ], [ 5.02389, 44.36056 ], [ 4.98702, 44.29271 ], [ 4.89166, 44.30425 ], [ 4.86953, 44.34508 ], [ 4.89291, 44.36482 ] ] ] ] } },
{ "type": "Feature", "properties": { "code": "94", "nom": "Corse" }, "geometry": { "type": "MultiPolygon", "coordinates": [ [ [ [ 9.40227, 41.8587 ], [ 9.38546, 41.64626 ], [ 9.28094, 41.59719 ], [ 9.36796, 41.59124 ], [ 9.2725, 41.52883 ], [ 9.28775, 41.48385 ], [ 9.21543, 41.41442 ], [ 9.25974, 41.41366 ], [ 9.22004, 41.36739 ], [ 9.0965, 41.39206 ], [ 9.12237, 41.44149 ], [ 9.07012, 41.44461 ], [ 9.07994, 41.47749 ], [ 9.0418, 41.45681 ], [ 8.92003, 41.48911 ], [ 8.78219, 41.56633 ], [ 8.79435, 41.63269 ], [ 8.87244, 41.64718 ], [ 8.9135, 41.691 ], [ 8.78283, 41.69921 ], [ 8.77498, 41.74142 ], [ 8.65872, 41.74026 ], [ 8.72801, 41.7739 ], [ 8.71083, 41.80101 ], [ 8.77129, 41.81124 ], [ 8.78452, 41.83112 ], [ 8.75093, 41.84516 ], [ 8.78823, 41.85046 ], [ 8.80263, 41.89646 ], [ 8.75238, 41.93339 ], [ 8.60661, 41.89517 ], [ 8.6234, 41.93484 ], [ 8.59208, 41.9644 ], [ 8.66291, 41.97654 ], [ 8.65999, 42.01231 ], [ 8.74652, 42.0511 ], [ 8.70034, 42.11231 ], [ 8.65893, 42.10129 ], [ 8.55879, 42.14632 ], [ 8.5934, 42.16831 ], [ 8.56114, 42.1716 ], [ 8.58139, 42.20594 ], [ 8.53971, 42.23713 ], [ 8.6928, 42.26829 ], [ 8.60165, 42.30896 ], [ 8.61487, 42.34959 ], [ 8.55779, 42.33224 ], [ 8.54322, 42.36729 ], [ 8.65682, 42.4168 ], [ 8.6655, 42.51363 ], [ 8.7202, 42.52542 ], [ 8.70916, 42.57672 ], [ 8.78105, 42.55652 ], [ 8.80263, 42.60257 ], [ 9.01495, 42.64136 ], [ 9.12456, 42.73164 ], [ 9.2211, 42.73567 ], [ 9.28746, 42.67449 ], [ 9.31418, 42.689 ], [ 9.34563, 42.74327 ], [ 9.30955, 42.83378 ], [ 9.3403, 42.86567 ], [ 9.32137, 42.89688 ], [ 9.36147, 42.92476 ], [ 9.34016, 42.99306 ], [ 9.4199, 43.01161 ], [ 9.46355, 42.9864 ], [ 9.49279, 42.80588 ], [ 9.44619, 42.67358 ], [ 9.53269, 42.54802 ], [ 9.55912, 42.1967 ], [ 9.54998, 42.10416 ], [ 9.41705, 41.96123 ], [ 9.40227, 41.8587 ] ] ], [ [ [ 9.27103, 41.36496 ], [ 9.2588, 41.36602 ], [ 9.25721, 41.37181 ], [ 9.2683, 41.37294 ], [ 9.27282, 41.3653 ], [ 9.27103, 41.36496 ] ] ], [ [ [ 9.26095, 41.3387 ], [ 9.25383, 41.3371 ], [ 9.24975, 41.34331 ], [ 9.25792, 41.34566 ], [ 9.26095, 41.3387 ] ] ], [ [ [ 8.5864, 41.87389 ], [ 8.5922, 41.87823 ], [ 8.59855, 41.88068 ], [ 8.59421, 41.87416 ], [ 8.5864, 41.87389 ] ] ] ] } }
]
}
